ONEWEB-0018             
1 45434U 20020L   25036.67852002  .00000622  00000+0  17187-2 0  9995
2 45434  87.8892 120.0359 0001928 107.0495 253.0844 13.11418399237558
ONEWEB-0083             
1 45435U 20020M   25036.66834661  .00000466  00000+0  12790-2 0  9997
2 45435  87.8892 120.0211 0001869 103.4307 256.7029 13.11419719237598
ONEWEB-0095             
1 45436U 20020N   25036.66000102  .00000204  00000+0  54054-3 0  9993
2 45436  87.8892 120.0520 0001719  79.7300 280.4021 13.11420425237596
ONEWEB-0092             
1 45437U 20020P   25036.93706690 -.00000343  00000+0 -10037-2 0  9997
2 45437  87.8889 119.9835 0001640  97.1954 262.9360 13.11414222237747
ONEWEB-0085             
1 45438U 20020Q   25036.50896558  .00000226  00000+0  60301-3 0  9992
2 45438  87.8895 120.0778 0001835 106.7545 253.3784 13.11420949237571
ONEWEB-0096             
1 45439U 20020R   25036.67005529  .00000543  00000+0  14969-2 0  9991
2 45439  87.8894 120.0133 0001846 113.8083 246.3239 13.11419628237584
ONEWEB-0037             
1 45440U 20020S   25036.26989441 -.00000420  00000+0 -12210-2 0  9995
2 45440  87.8889 120.0630 0001733 102.6113 257.5208 13.11418335237569
ONEWEB-0042             
1 45441U 20020T   25036.65972625  .00000196  00000+0  51823-3 0  9997
2 45441  87.8893 120.0269 0001819 108.1446 251.9880 13.11420386237583
